[{"OBJECT_NAME":"STARLINK-32889","OBJECT_ID":"2025-029P","EPOCH":"2026-03-09T21:18:21.855744","MEAN_MOTION":15.30206698,"ECCENTRICITY":4.707e-5,"INCLINATION":53.1584,"RA_OF_ASC_NODE":231.8424,"ARG_OF_PERICENTER":120.7496,"MEAN_ANOMALY":239.3551,"EPHEMERIS_TYPE":0,"CLASSIFICATION_TYPE":"U","NORAD_CAT_ID":62961,"ELEMENT_SET_NO":999,"REV_AT_EPOCH":6134,"BSTAR":0.0010761259,"MEAN_MOTION_DOT":0.00031655,"MEAN_MOTION_DDOT":0},{"OBJECT_NAME":"GLOBAL-34","OBJECT_ID":"2026-043A","EPOCH":"2026-03-09T11:23:30.999840","MEAN_MOTION":15.31488019,"ECCENTRICITY":0.00068849,"INCLINATION":42.0215,"RA_OF_ASC_NODE":76.7399,"ARG_OF_PERICENTER":289.2632,"MEAN_ANOMALY":70.746,"EPHEMERIS_TYPE":0,"CLASSIFICATION_TYPE":"U","NORAD_CAT_ID":68098,"ELEMENT_SET_NO":999,"REV_AT_EPOCH":53,"BSTAR":0.00045822046,"MEAN_MOTION_DOT":0.00014018,"MEAN_MOTION_DDOT":0}]
